NORAD_CAT_ID,OBJECT_NAME,OBJECT_TYPE,EPOCH,MEAN_MOTION,ECCENTRICITY,INCLINATION,RA_OF_ASC_NODE,ARG_OF_PERICENTER,MEAN_ANOMALY,BSTAR,MEAN_MOTION_DOT,MEAN_MOTION_DDOT,TLE_LINE0,TLE_LINE1,TLE_LINE2,SEMIMAJOR_AXIS,PERIOD,APOGEE,PERIGEE,DECAYED
51124.0,STARLINK-3389,PAYLOAD,2022-10-01 17:02:26,15.08846843,0.0001748,53.217,172.9528,57.3662,302.7498,0.00011773,1.586e-05,0.0,0 STARLINK-3389,1 51124U 22005W   22274.71002676  .00001586  00000-0  11773-3 0  9990,2 51124  53.2170 172.9528 0001748  57.3662 302.7498 15.08846843 39288,6917.859,95.437,540.934,538.515,0.0
51124.0,STARLINK-3389,PAYLOAD,2022-10-02 10:31:41,15.08834267,0.0001695,53.2164,169.68,56.8626,303.2528,-0.00010752,-1.999e-05,0.0,0 STARLINK-3389,1 51124U 22005W   22275.43867443 -.00001999  00000-0 -10752-3 0  9997,2 51124  53.2164 169.6800 0001695  56.8626 303.2528 15.08834267 40506,6917.898,95.438,540.935,538.59,0.0
51124.0,STARLINK-3389,PAYLOAD,2022-10-03 10:22:28,15.08852844,0.0001753,53.2162,165.2197,59.4293,300.6872,0.00050217,7.716e-05,0.0,0 STARLINK-3389,1 51124U 22005W   22276.43227294  .00007716  00000-0  50217-3 0  9993,2 51124  53.2162 165.2197 0001753  59.4293 300.6872 15.08852844 40659,6917.840999999999,95.437,540.919,538.493,0.0
51124.0,STARLINK-3389,PAYLOAD,2022-10-03 19:54:46,15.08861158,0.000171,53.2159,163.4357,58.1544,301.9615,0.00063943,9.909e-05,0.0,0 STARLINK-3389,1 51124U 22005W   22276.82970894  .00009909  00000-0  63943-3 0  9993,2 51124  53.2159 163.4357 0001710  58.1544 301.9615 15.08861158 39601,6917.816,95.436,540.864,538.498,0.0
51124.0,STARLINK-3389,PAYLOAD,2022-10-04 00:40:56,15.08850295,0.0001751,53.2162,162.5441,54.5162,305.5993,0.00049857,7.658e-05,0.0,0 STARLINK-3389,1 51124U 22005W   22277.02843322  .00007658  00000-0  49857-3 0  9998,2 51124  53.2162 162.5441 0001751  54.5162 305.5993 15.08850295 40746,6917.849,95.437,540.925,538.503,0.0
51124.0,STARLINK-3389,PAYLOAD,2022-10-04 02:16:19,15.08849006,0.0001705,53.2161,162.2465,53.5208,306.5941,0.00046092,7.057e-05,0.0,0 STARLINK-3389,1 51124U 22005W   22277.09467281  .00007057  00000-0  46092-3 0  9992,2 51124  53.2161 162.2465 0001705  53.5208 306.5941 15.08849006 39646,6917.853,95.437,540.8969999999998,538.538,0.0
51124.0,STARLINK-3389,PAYLOAD,2022-10-04 19:45:33,15.08858053,0.0001623,53.2163,158.9753,61.3604,298.7551,0.00039182,5.956e-05,0.0,0 STARLINK-3389,1 51124U 22005W   22277.82330663  .00005956  00000-0  39182-3 0  9994,2 51124  53.2163 158.9753 0001623  61.3604 298.7551 15.08858053 39759,6917.825,95.436,540.813,538.567,0.0
51124.0,STARLINK-3389,PAYLOAD,2022-10-04 22:56:20,15.08838315,0.0001643,53.2164,158.3806,52.645,307.4691,-0.00022341,-3.842e-05,0.0,0 STARLINK-3389,1 51124U 22005W   22277.95578819 -.00003842  00000-0 -22341-3 0  9998,2 51124  53.2164 158.3806 0001643  52.6450 307.4691 15.08838315 40885,6917.886,95.438,540.887,538.614,0.0
51124.0,STARLINK-3389,PAYLOAD,2022-10-05 21:11:45,15.08823458,0.0001456,53.2168,154.2173,53.0892,307.0234,3.7416e-05,3.07e-06,0.0,0 STARLINK-3389,1 51124U 22005W   22278.88315983  .00000307  00000-0  37416-4 0  9993,2 51124  53.2168 154.2173 0001456  53.0892 307.0234 15.08823458 39911,6917.931,95.439,540.803,538.789,0.0
51124.0,STARLINK-3389,PAYLOAD,2022-10-06 01:57:54,15.08829205,0.000156,53.216,153.32399999999996,50.7059,309.4071,-5.0335e-05,-1.089e-05,0.0,0 STARLINK-3389,1 51124U 22005W   22279.08188007 -.00001089  00000-0 -50335-4 0  9996,2 51124  53.2160 153.3240 0001560  50.7059 309.4071 15.08829205 39947,6917.913000000001,95.438,540.8580000000002,538.6990000000002,0.0
51124.0,STARLINK-3389,PAYLOAD,2022-10-06 21:02:32,15.08841594,0.0001587,53.2165,149.7564,52.6898,307.4239,0.00041916,6.39e-05,0.0,0 STARLINK-3389,1 51124U 22005W   22279.87676156  .00006390  00000-0  41916-3 0  9992,2 51124  53.2165 149.7564 0001587  52.6898 307.4239 15.08841594 40065,6917.876,95.437,540.8380000000002,538.643,0.0
51124.0,STARLINK-3389,PAYLOAD,2022-10-07 03:24:04,15.08851001,0.0001576999999999,53.2167,148.5669,56.5112,303.603,0.00057772,8.921e-05,0.0,0 STARLINK-3389,1 51124U 22005W   22280.14171976  .00008921  00000-0  57772-3 0  9993,2 51124  53.2167 148.5669 0001577  56.5112 303.6030 15.08851001 40107,6917.847,95.437,540.803,538.621,0.0
51124.0,STARLINK-3389,PAYLOAD,2022-10-07 20:53:19,15.08839539,0.0001582,53.2159,145.2965,60.7323,299.3827,6.4717e-05,7.42e-06,0.0,0 STARLINK-3389,1 51124U 22005W   22280.87036158  .00000742  00000-0  64717-4 0  9996,2 51124  53.2159 145.2965 0001582  60.7323 299.3827 15.08839539 41320,6917.882,95.438,540.841,538.6519999999998,0.0
51124.0,STARLINK-3389,PAYLOAD,2022-10-08 08:01:02,15.08826216,0.0001394,53.216,143.2137,76.5099,283.6048,-0.00014702,-2.626e-05,0.0,0 STARLINK-3389,1 51124U 22005W   22281.33405138 -.00002626  00000-0 -14702-3 0  9999,2 51124  53.2160 143.2137 0001394  76.5099 283.6048 15.08826216 40280,6917.9230000000025,95.438,540.752,538.823,0.0
51124.0,STARLINK-3389,PAYLOAD,2022-10-08 20:44:07,15.08825575,0.0001805,53.2163,140.8356,57.5274,302.5893,-0.00010961,-2.031e-05,0.0,0 STARLINK-3389,1 51124U 22005W   22281.86397925 -.00002031  00000-0 -10961-3 0  9994,2 51124  53.2163 140.8356 0001805  57.5274 302.5893 15.08825575 40365,6917.924,95.438,541.038,538.5409999999998,0.0
51124.0,STARLINK-3389,PAYLOAD,2022-10-09 07:51:49,15.08839972,0.0001776,53.2163,138.7541,57.65,302.4664,0.00015202,2.132e-05,0.0,0 STARLINK-3389,1 51124U 22005W   22282.32765532  .00002132  00000-0  15202-3 0  9992,2 51124  53.2163 138.7541 0001776  57.6500 302.4664 15.08839972 41549,6917.88,95.438,540.974,538.5169999999998,0.0
51124.0,STARLINK-3389,PAYLOAD,2022-10-09 20:34:54,15.08854933,0.0001803,53.2156,136.3757,57.6172,302.4995,0.00078599,0.00012248,0.0,0 STARLINK-3389,1 51124U 22005W   22282.85757540  .00012248  00000-0  78599-3 0  9997,2 51124  53.2156 136.3757 0001803  57.6172 302.4995 15.08854933 40517,6917.835,95.437,540.947,538.452,0.0
51124.0,STARLINK-3389,PAYLOAD,2022-10-10 07:42:36,15.08854287,0.0001669,53.2148,134.2932,57.6625,302.4528,0.00036092,5.463e-05,0.0,0 STARLINK-3389,1 51124U 22005W   22283.32125279  .00005463  00000-0  36092-3 0  9991,2 51124  53.2148 134.2932 0001669  57.6625 302.4528 15.08854287 40584,6917.837,95.437,540.856,538.547,0.0
51124.0,STARLINK-3389,PAYLOAD,2022-10-10 20:25:41,15.08850969,0.0001795,53.2148,131.9146,58.2732,301.8435,0.00020562,2.987e-05,0.0,0 STARLINK-3389,1 51124U 22005W   22283.85117085  .00002987  00000-0  20562-3 0  9998,2 51124  53.2148 131.9146 0001795  58.2732 301.8435 15.08850969 41776,6917.847,95.437,540.9540000000002,538.47,0.0
51124.0,STARLINK-3389,PAYLOAD,2022-10-10 23:36:27,15.08857087,0.000167,53.2152,131.3202,50.851000000000006,309.2631,0.00053493,8.240000000000001e-05,0.0,0 STARLINK-3389,1 51124U 22005W   22283.98364939  .00008240  00000-0  53493-3 0  9991,2 51124  53.2152 131.3202 0001670  50.8510 309.2631 15.08857087 40689,6917.828,95.436,540.8480000000002,538.538,0.0
51124.0,STARLINK-3389,PAYLOAD,2022-10-12 18:31:53,15.08844899,0.0001823,53.2166,123.2883,46.9275,313.187,0.00062558,9.683e-05,0.0,0 STARLINK-3389,1 51124U 22005W   22285.77214148  .00009683  00000-0  62558-3 0  9990,2 51124  53.2166 123.2883 0001823  46.9275 313.1870 15.08844899 42063,6917.865,95.437,540.992,538.469,0.0
51124.0,STARLINK-3389,PAYLOAD,2022-10-12 21:42:38,15.08826221,0.0001591,53.2157,122.6954,53.0844,307.0294,-0.00011505,-2.118e-05,0.0,0 STARLINK-3389,1 51124U 22005W   22285.90461177 -.00002118  00000-0 -11505-3 0  9995,2 51124  53.2157 122.6954 0001591  53.0844 307.0294 15.08826221 40977,6917.9230000000025,95.438,540.888,538.687,0.0
51124.0,STARLINK-3389,PAYLOAD,2022-10-13 12:01:07,15.08843709,0.0001574,53.2161,120.019,51.3035,308.8097,-5.758800000000001e-05,-1.205e-05,0.0,0 STARLINK-3389,1 51124U 22005W   22286.50078692 -.00001205  00000-0 -57588-4 0  9996,2 51124  53.2161 120.0190 0001574  51.3035 308.8097 15.08843709 41061,6917.869000000002,95.437,540.823,538.645,0.0
51124.0,STARLINK-3389,PAYLOAD,2022-10-13 15:11:54,15.08842304,0.0001693,53.2157,119.4246,52.1205,307.994,0.00011936,1.612e-05,0.0,0 STARLINK-3389,1 51124U 22005W   22286.63326409  .00001612  00000-0  11936-3 0  9998,2 51124  53.2157 119.4246 0001693  52.1205 307.9940 15.08842304 42192,6917.873000000001,95.437,540.91,538.567,0.0
51124.0,STARLINK-3389,PAYLOAD,2022-10-13 19:58:03,15.08846719,0.0001673,53.2157,118.5327,53.1377,306.9769,0.00019804,2.866e-05,0.0,0 STARLINK-3389,1 51124U 22005W   22286.83198271  .00002866  00000-0  19804-3 0  9998,2 51124  53.2157 118.5327 0001673  53.1377 306.9769 15.08846719 41114,6917.86,95.437,540.882,538.567,0.0
51124.0,STARLINK-3389,PAYLOAD,2022-10-14 11:51:54,15.08851465,0.0001525,53.2158,115.5583,60.4075,299.7069,0.00037516,5.69e-05,0.0,0 STARLINK-3389,1 51124U 22005W   22287.49437934  .00005690  00000-0  37516-3 0  9991,2 51124  53.2158 115.5583 0001525  60.4075 299.7069 15.08851465 41215,6917.845,95.437,540.765,538.655,0.0
51124.0,STARLINK-3389,PAYLOAD,2022-10-14 19:48:50,15.08845704,0.0001685,53.2158,114.0719,52.0651,308.0493,9.5406e-05,1.231e-05,0.0,0 STARLINK-3389,1 51124U 22005W   22287.82557923  .00001231  00000-0  95406-4 0  9999,2 51124  53.2158 114.0719 0001685  52.0651 308.0493 15.08845704 41263,6917.863,95.437,540.894,538.562,0.0
51124.0,STARLINK-3389,PAYLOAD,2022-10-15 13:18:03,15.088572,0.0001805,53.2158,110.8009,53.5696,306.5463,0.00029038,4.338e-05,0.0,0 STARLINK-3389,1 51124U 22005W   22288.55421179  .00004338  00000-0  29038-3 0  9991,2 51124  53.2158 110.8009 0001805  53.5696 306.5463 15.08857200 41374,6917.828,95.436,540.941,538.444,0.0
51124.0,STARLINK-3389,PAYLOAD,2022-10-15 18:04:13,15.08849505,0.0001691,53.2158,109.9091,53.1194,306.9953,5.9844e-05,6.65e-06,0.0,0 STARLINK-3389,1 51124U 22005W   22288.75293216  .00000665  00000-0  59844-4 0  9990,2 51124  53.2158 109.9091 0001691  53.1194 306.9953 15.08849505 41407,6917.851,95.437,540.886,538.547,0.0
